OBJECT_NAME,OBJECT_ID,EPOCH,MEAN_MOTION,ECCENTRICITY,INCLINATION,RA_OF_ASC_NODE,ARG_OF_PERICENTER,MEAN_ANOMALY,EPHEMERIS_TYPE,CLASSIFICATION_TYPE,NORAD_CAT_ID,ELEMENT_SET_NO,REV_AT_EPOCH,BSTAR,MEAN_MOTION_DOT,MEAN_MOTION_DDOT
IONOSFERA-M 2,2024-199B,2026-07-16T06:32:30.339168,14.22762658,.00005408,98.7132,70.0429,126.4371,233.6857,0,U,61736,999,13496,.28512866E-4,.2E-6,0
PRSC-EO1,2025-012A,2026-07-16T06:25:52.197600,15.17628966,.00068621,97.4215,269.1576,143.4279,216.7425,0,U,62725,999,8260,.18202105E-3,.3597E-4,0
BIOMASS,2025-090A,2026-07-16T06:52:25.179456,14.67535493,.00014677,98.0749,24.1777,86.3931,273.7441,0,U,63772,999,6495,.49992615E-4,.235E-5,0
GOSAT-GW (IBUKI GW),2025-141A,2026-07-16T07:17:13.848864,14.67554931,.00014383,98.0565,134.1477,85.1089,275.0279,0,U,64694,999,5611,.57820628E-4,.28E-5,0
IONOSFERA-M 3,2025-155A,2026-07-16T07:35:30.280416,14.21490920,.00023235,98.6041,158.4907,110.9334,249.2093,0,U,64876,999,5054,.19055609E-4,-.1E-7,0
IONOSFERA-M 4,2025-155B,2026-07-16T06:44:14.697888,14.21493326,.0001838,98.6040,158.3732,98.5923,261.5463,0,U,64877,999,5053,.21660548E-4,.5E-7,0
MICROCARB,2025-156A,2026-07-16T03:53:06.611712,14.72885650,.00176935,98.0075,273.8504,167.7282,192.4360,0,U,64899,999,5223,.46050365E-4,.245E-5,0
CO3D 3,2025-156B,2026-07-16T05:10:18.056064,15.20196146,.00017551,97.4335,275.4913,93.8998,266.2438,0,U,64900,999,5394,.98983276E-4,.2075E-4,0
CO3D 4,2025-156C,2026-07-16T05:10:31.009152,15.20190828,.00016884,97.4336,275.4912,152.1192,208.0134,0,U,64901,999,5394,.32352857E-4,.633E-5,0
CO3D 2,2025-156D,2026-07-16T05:57:17.090208,15.20205931,.00012446,97.4335,275.4222,90.6629,269.4749,0,U,64902,999,5394,.99739643E-4,.2092E-4,0
CO3D 1,2025-156E,2026-07-16T05:57:30.381120,15.20206051,.00013293,97.4336,275.4223,101.1304,259.0081,0,U,64903,999,5394,.10374256E-3,.2179E-4,0
PRSC-S1,2025-164A,2026-07-16T04:01:16.624128,15.06639280,.00068454,41.1301,124.5675,204.1768,155.8725,0,U,65055,999,5280,.14876151E-3,.2067E-4,0
SENTINEL-6B,2025-264A,2026-07-16T01:14:53.050560,12.80930161,.00078472,66.0412,75.2271,268.7058,91.3058,0,U,66514,999,3086,.90618675E-4,-.4E-6,0
CAS500-3,2025-274F,2026-07-16T06:12:10.314144,14.88385176,.00061821,97.7437,124.6485,35.4835,324.6792,0,U,66655,999,3447,.65944188E-4,.557E-5,0
CSG-3,2026-001A,2026-07-13T12:40:32.844288,14.82151371,.00015181,97.8894,17.7492,93.3222,266.8165,0,U,67304,999,2836,.2348529E-4,.135E-5,0
PRSC-E03,2026-092A,2026-07-16T06:45:35.209728,15.06811538,.00049745,38.0011,278.0986,257.7675,102.2530,0,U,68835,999,1234,.79586174E-4,.1098E-4,0
CAS500-2,2026-100AK,2026-07-16T04:03:56.249856,15.20908419,.00077497,97.3863,94.4739,287.7033,72.3357,0,U,69013,999,1121,.13531687E-3,.2925E-4,0
