IONOSFERA-M 2           
1 61736U 24199B   26197.27257337  .00000020  00000+0  28513-4 0  9993
2 61736  98.7132  70.0429 0000540 126.4371 233.6857 14.22762658134960
PRSC-EO1                
1 62725U 25012A   26197.26796525  .00003597  00000+0  18202-3 0  9998
2 62725  97.4215 269.1576 0006862 143.4279 216.7425 15.17628966 82604
BIOMASS                 
1 63772U 25090A   26197.28640254  .00000235  00000+0  49993-4 0  9994
2 63772  98.0749  24.1777 0001467  86.3931 273.7441 14.67535493 64959
GOSAT-GW (IBUKI GW)     
1 64694U 25141A   26197.30363251  .00000280  00000+0  57821-4 0  9996
2 64694  98.0565 134.1477 0001438  85.1089 275.0279 14.67554931 56118
IONOSFERA-M 3           
1 64876U 25155A   26197.31632269 -.00000001  00000+0  19056-4 0  9992
2 64876  98.6041 158.4907 0002323 110.9334 249.2093 14.21490920 50541
IONOSFERA-M 4           
1 64877U 25155B   26197.28072567  .00000005  00000+0  21661-4 0  9996
2 64877  98.6040 158.3732 0001838  98.5923 261.5463 14.21493326 50531
MICROCARB               
1 64899U 25156A   26197.16188208  .00000245  00000+0  46050-4 0  9993
2 64899  98.0075 273.8504 0017693 167.7282 192.4360 14.72885650 52238
CO3D 3                  
1 64900U 25156B   26197.21548676  .00002075  00000+0  98983-4 0  9996
2 64900  97.4335 275.4913 0001755  93.8998 266.2438 15.20196146 53944
CO3D 4                  
1 64901U 25156C   26197.21563668  .00000633  00000+0  32353-4 0  9992
2 64901  97.4336 275.4912 0001688 152.1192 208.0134 15.20190828 53943
CO3D 2                  
1 64902U 25156D   26197.24811447  .00002092  00000+0  99740-4 0  9991
2 64902  97.4335 275.4222 0001244  90.6629 269.4749 15.20205931 53941
CO3D 1                  
1 64903U 25156E   26197.24826830  .00002179  00000+0  10374-3 0  9995
2 64903  97.4336 275.4223 0001329 101.1304 259.0081 15.20206051 53944
PRSC-S1                 
1 65055U 25164A   26197.16755352  .00002067  00000+0  14876-3 0  9991
2 65055  41.1301 124.5675 0006845 204.1768 155.8725 15.06639280 52802
SENTINEL-6B             
1 66514U 25264A   26197.05200290 -.00000040  00000+0  90619-4 0  9997
2 66514  66.0412  75.2271 0007847 268.7058  91.3058 12.80930161 30863
CAS500-3                
1 66655U 25274F   26197.25845271  .00000557  00000+0  65944-4 0  9995
2 66655  97.7437 124.6485 0006182  35.4835 324.6792 14.88385176 34474
CSG-3                   
1 67304U 26001A   26194.52815792  .00000135  00000+0  23485-4 0  9994
2 67304  97.8894  17.7492 0001518  93.3222 266.8165 14.82151371 28369
PRSC-E03                
1 68835U 26092A   26197.28165752  .00001098  00000+0  79586-4 0  9996
2 68835  38.0011 278.0986 0004974 257.7675 102.2530 15.06811538 12349
CAS500-2                
1 69013U 26100AK  26197.16940104  .00002925  00000+0  13532-3 0  9992
2 69013  97.3863  94.4739 0007749 287.7033  72.3357 15.20908419 11211
